[{"OBJECT_NAME":"IRIDIUM 177","OBJECT_ID":"2023-068T","EPOCH":"2026-03-09T21:08:04.695360","MEAN_MOTION":14.80207725,"ECCENTRICITY":0.00023207,"INCLINATION":86.2006,"RA_OF_ASC_NODE":15.9326,"ARG_OF_PERICENTER":75.4952,"MEAN_ANOMALY":284.6526,"EPHEMERIS_TYPE":0,"CLASSIFICATION_TYPE":"U","NORAD_CAT_ID":56727,"ELEMENT_SET_NO":999,"REV_AT_EPOCH":15167,"BSTAR":0.00019232012,"MEAN_MOTION_DOT":1.487e-5,"MEAN_MOTION_DDOT":0},{"OBJECT_NAME":"GAOFEN-12 05","OBJECT_ID":"2024-186A","EPOCH":"2026-03-10T00:24:03.082176","MEAN_MOTION":14.80867025,"ECCENTRICITY":8.035e-5,"INCLINATION":97.9136,"RA_OF_ASC_NODE":78.47,"ARG_OF_PERICENTER":119.8507,"MEAN_ANOMALY":240.2785,"EPHEMERIS_TYPE":0,"CLASSIFICATION_TYPE":"U","NORAD_CAT_ID":61571,"ELEMENT_SET_NO":999,"REV_AT_EPOCH":7466,"BSTAR":8.8744173e-5,"MEAN_MOTION_DOT":6.33e-6,"MEAN_MOTION_DDOT":0}]
